{
  "norad_id": 58955,
  "name": "HBTSS-SV2",
  "history": [
    {
      "epoch": "2026-03-28T14:50:25.865088Z",
      "apogee_km": 1012.138944314931,
      "perigee_km": 983.7587164739061,
      "latitude_deg": -1.706095996879306e-05,
      "longitude_deg": 5.407294329873832,
      "height_km": 1008.2465065395562,
      "semi_major_axis_km": 7376.085830394419,
      "eccentricity": 0.0019238,
      "inclination_deg": 39.9919,
      "raan_deg": 54.0513,
      "arg_perigee_deg": 139.8194,
      "mean_anomaly_deg": 220.3978,
      "mean_motion_rev_day": 13.7045197
    },
    {
      "epoch": "2026-03-29T04:50:02.403744Z",
      "apogee_km": 1012.1697339558978,
      "perigee_km": 983.7260753465816,
      "latitude_deg": -9.645755774982944e-06,
      "longitude_deg": 152.25166675300173,
      "height_km": 1008.8007211547737,
      "semi_major_axis_km": 7376.084904651239,
      "eccentricity": 0.0019281,
      "inclination_deg": 39.992,
      "raan_deg": 51.3726,
      "arg_perigee_deg": 143.2432,
      "mean_anomaly_deg": 216.964,
      "mean_motion_rev_day": 13.70452228
    },
    {
      "epoch": "2026-03-30T03:34:24.237696Z",
      "apogee_km": 1012.2216841467061,
      "perigee_km": 983.6718143867938,
      "latitude_deg": -1.8754110989310845e-05,
      "longitude_deg": 165.8740078239646,
      "height_km": 1009.6214649040775,
      "semi_major_axis_km": 7376.08374926675,
      "eccentricity": 0.0019353,
      "inclination_deg": 39.9922,
      "raan_deg": 47.0198,
      "arg_perigee_deg": 148.8166,
      "mean_anomaly_deg": 211.3732,
      "mean_motion_rev_day": 13.7045255
    },
    {
      "epoch": "2026-03-30T05:19:21.304704Z",
      "apogee_km": 1012.2253793787722,
      "perigee_km": 983.6681335073272,
      "latitude_deg": -2.270895119439074e-05,
      "longitude_deg": 139.22958753124848,
      "height_km": 1009.6799032422246,
      "semi_major_axis_km": 7376.083756443049,
      "eccentricity": 0.0019358,
      "inclination_deg": 39.9922,
      "raan_deg": 46.685,
      "arg_perigee_deg": 149.2454,
      "mean_anomaly_deg": 210.943,
      "mean_motion_rev_day": 13.70452548
    },
    {
      "epoch": "2026-03-30T14:04:06.614688Z",
      "apogee_km": 1012.2420244071654,
      "perigee_km": 983.650849788286,
      "latitude_deg": -4.44317470264379e-05,
      "longitude_deg": 6.007388442811311,
      "height_km": 1009.9598056715365,
      "semi_major_axis_km": 7376.083437097725,
      "eccentricity": 0.0019381,
      "inclination_deg": 39.9923,
      "raan_deg": 45.0108,
      "arg_perigee_deg": 151.3837,
      "mean_anomaly_deg": 208.7976,
      "mean_motion_rev_day": 13.70452637
    },
    {
      "epoch": "2026-03-30T22:48:51.925536Z",
      "apogee_km": 1012.2649391047735,
      "perigee_km": 983.6272964000991,
      "latitude_deg": 1.5512119464883227e-05,
      "longitude_deg": -127.21471740629676,
      "height_km": 1010.2285069348397,
      "semi_major_axis_km": 7376.083117752436,
      "eccentricity": 0.00194125,
      "inclination_deg": 39.9923,
      "raan_deg": 43.3366,
      "arg_perigee_deg": 153.5231,
      "mean_anomaly_deg": 206.6511,
      "mean_motion_rev_day": 13.70452726
    },
    {
      "epoch": "2026-03-31T21:33:13.705056Z",
      "apogee_km": 1012.3202768127776,
      "perigee_km": 983.5697842741256,
      "latitude_deg": -2.837828384495315e-06,
      "longitude_deg": -113.59195913405894,
      "height_km": 1010.8372983185536,
      "semi_major_axis_km": 7376.082030543452,
      "eccentricity": 0.0019489,
      "inclination_deg": 39.9924,
      "raan_deg": 38.984,
      "arg_perigee_deg": 159.0326,
      "mean_anomaly_deg": 201.1223,
      "mean_motion_rev_day": 13.70453029
    },
    {
      "epoch": "2026-04-01T13:17:47.217408Z",
      "apogee_km": 1012.3585863028175,
      "perigee_km": 983.5299103518555,
      "latitude_deg": -4.340342999979023e-05,
      "longitude_deg": 6.608431438579229,
      "height_km": 1011.189720172921,
      "semi_major_axis_km": 7376.081248327337,
      "eccentricity": 0.0019542,
      "inclination_deg": 39.9925,
      "raan_deg": 35.9706,
      "arg_perigee_deg": 162.8619,
      "mean_anomaly_deg": 197.279,
      "mean_motion_rev_day": 13.70453247
    },
    {
      "epoch": "2026-04-02T12:02:08.932992Z",
      "apogee_km": 1012.4182184663732,
      "perigee_km": 983.4676947231337,
      "latitude_deg": -1.384753459719748e-05,
      "longitude_deg": 20.23131323417044,
      "height_km": 1011.5934630836938,
      "semi_major_axis_km": 7376.079956594753,
      "eccentricity": 0.00196246,
      "inclination_deg": 39.9926,
      "raan_deg": 31.6178,
      "arg_perigee_deg": 168.3367,
      "mean_anomaly_deg": 191.7837,
      "mean_motion_rev_day": 13.70453607
    },
    {
      "epoch": "2026-04-03T05:31:39.469152Z",
      "apogee_km": 1012.4665526845583,
      "perigee_km": 983.4166048100196,
      "latitude_deg": -2.2203190449079444e-05,
      "longitude_deg": 113.78750631520707,
      "height_km": 1011.8189150263353,
      "semi_major_axis_km": 7376.078578747289,
      "eccentricity": 0.0019692,
      "inclination_deg": 39.9926,
      "raan_deg": 28.2696,
      "arg_perigee_deg": 172.5154,
      "mean_anomaly_deg": 187.5889,
      "mean_motion_rev_day": 13.70453991
    },
    {
      "epoch": "2026-04-04T20:00:34.595136Z",
      "apogee_km": 1012.5683688953923,
      "perigee_km": 983.3118965561498,
      "latitude_deg": 6.30874356999742e-06,
      "longitude_deg": -112.38875106145815,
      "height_km": 1012.0412404587955,
      "semi_major_axis_km": 7376.077132725771,
      "eccentricity": 0.0019832,
      "inclination_deg": 39.9929,
      "raan_deg": 20.9034,
      "arg_perigee_deg": 181.7403,
      "mean_anomaly_deg": 178.3277,
      "mean_motion_rev_day": 13.70454394
    },
    {
      "epoch": "2026-04-05T11:45:08.034048Z",
      "apogee_km": 1012.6090389087149,
      "perigee_km": 983.2690736581153,
      "latitude_deg": -7.891149136383869e-06,
      "longitude_deg": 7.8119757550749735,
      "height_km": 1012.0232784711236,
      "semi_major_axis_km": 7376.076056283415,
      "eccentricity": 0.00198886,
      "inclination_deg": 39.9929,
      "raan_deg": 17.89,
      "arg_perigee_deg": 185.4529,
      "mean_anomaly_deg": 174.6003,
      "mean_motion_rev_day": 13.70454694
    },
    {
      "epoch": "2026-04-06T01:44:44.420640Z",
      "apogee_km": 1012.6484654202077,
      "perigee_km": 983.2283984738515,
      "latitude_deg": -2.511679733208559e-06,
      "longitude_deg": 154.6571800503647,
      "height_km": 1011.9577966491204,
      "semi_major_axis_km": 7376.075431947029,
      "eccentricity": 0.00199429,
      "inclination_deg": 39.993,
      "raan_deg": 15.2115,
      "arg_perigee_deg": 188.7705,
      "mean_anomaly_deg": 171.2695,
      "mean_motion_rev_day": 13.70454868
    },
    {
      "epoch": "2026-04-07T02:14:03.064128Z",
      "apogee_km": 1012.7100820622045,
      "perigee_km": 983.1635955645925,
      "latitude_deg": 3.250098827839077e-06,
      "longitude_deg": 141.63639565451186,
      "height_km": 1011.7174040599504,
      "semi_major_axis_km": 7376.073838813399,
      "eccentricity": 0.00200286,
      "inclination_deg": 39.993,
      "raan_deg": 10.5241,
      "arg_perigee_deg": 194.5652,
      "mean_anomaly_deg": 165.4519,
      "mean_motion_rev_day": 13.70455312
    },
    {
      "epoch": "2026-04-08T09:43:09.869376Z",
      "apogee_km": 1012.7824482481456,
      "perigee_km": 983.0872680758084,
      "latitude_deg": -2.9149719923304217e-05,
      "longitude_deg": 22.03824593255177,
      "height_km": 1011.1936206417206,
      "semi_major_axis_km": 7376.071858161977,
      "eccentricity": 0.00201294,
      "inclination_deg": 39.993,
      "raan_deg": 4.4974,
      "arg_perigee_deg": 201.8963,
      "mean_anomaly_deg": 158.0924,
      "mean_motion_rev_day": 13.70455864
    }
  ]
}